STARLINK-1233
1 15214C 20012AN  21326.13714084  .00008601  00000-0  57638-3 0  3264
2 15214  53.0516 228.1217 0001642  68.9615  82.5361 15.06383322    18
